{
"type": "FeatureCollection",
"name": "historical_landslides",
"crs": { "type": "name", "properties": { "name": "urn:ogc:def:crs:OGC:1.3:CRS84" } },
"features": [
{ "type": "Feature", "properties": { "landslide_id": "DEMO-LS-001", "date": "2020-05-15", "latitude": 27.7172, "longitude": 85.3239, "location": "Kathmandu Valley", "district": "Kathmandu", "state": "Bagmati", "country": "Nepal", "source": "Demo Source", "source_url": "https://example.com/demo1", "severity": "Low", "description": "A synthetic landslide record for demonstration purposes only.", "data_quality_status": "CLEAN" }, "geometry": { "type": "Point", "coordinates": [ 85.3239, 27.7172 ] } },
{ "type": "Feature", "properties": { "landslide_id": "DEMO-LS-002", "date": "2019-07-22", "latitude": 28.3949, "longitude": 84.124, "location": "Pokhara", "district": "Kaski", "state": "Gandaki", "country": "Nepal", "source": "Demo Source", "source_url": "https://example.com/demo2", "severity": "Medium", "description": "Another synthetic record. Not real historical data.", "data_quality_status": "CLEAN" }, "geometry": { "type": "Point", "coordinates": [ 84.124, 28.3949 ] } },
{ "type": "Feature", "properties": { "landslide_id": "DEMO-LS-003", "date": "2021-08-10", "latitude": 30.3165, "longitude": 78.0322, "location": "Uttarkashi", "district": "Uttarkashi", "state": "Uttarakhand", "country": "India", "source": "Demo Source", "source_url": "https://example.com/demo3", "severity": "High", "description": "Third synthetic record. Do not use for training.", "data_quality_status": "CLEAN" }, "geometry": { "type": "Point", "coordinates": [ 78.0322, 30.3165 ] } },
{ "type": "Feature", "properties": { "landslide_id": "DEMO-LS-004", "date": "2018-09-01", "latitude": 22.5726, "longitude": 88.3639, "location": "Kolkata", "district": "Kolkata", "state": "West Bengal", "country": "India", "source": "Demo Source", "source_url": "https://example.com/demo4", "severity": null, "description": "A record with missing severity.", "data_quality_status": "CLEAN" }, "geometry": { "type": "Point", "coordinates": [ 88.3639, 22.5726 ] } }
]
}
