{
  "type": "FeatureCollection",
  "name": "Nilgiris Landslide Risk Study Area",
  "crs": {
    "type": "name",
    "properties": {
      "name": "urn:ogc:def:crs:OGC:1.3:CRS84"
    }
  },
  "bbox": [
    76.45,
    11.2,
    77.05,
    11.6
  ],
  "features": [
    {
      "type": "Feature",
      "id": "AOI-NILGIRIS-01",
      "properties": {
        "name": "Nilgiris Landslide Risk Study Area",
        "short_code": "AOI-NILGIRIS-01",
        "region": "Nilgiris District, Western Ghats",
        "state": "Tamil Nadu",
        "country": "India",
        "crs": "EPSG:4326",
        "epsg": 4326,
        "datum": "WGS 84",
        "purpose": "Geographical Area of Interest (AOI) for Sentinel-2 Level-2A satellite data ingestion, cloud masking, NDVI computation, spatial clipping, and integration with M2-B (DEM/Terrain) and M2-C (Rainfall/Hydrology).",
        "data_source": "Survey of India / Western Ghats Geomorphic Basin Definition",
        "target_satellite_sensor": "Sentinel-2 MSI (Multispectral Instrument)",
        "sentinel_bands_required": [
          "B04 (Red - 665nm)",
          "B08 (NIR - 842nm)"
        ],
        "native_resolution_meters": 10.0,
        "key_catchments": [
          "Ooty Central Urban Valley",
          "Coonoor Ghat Corridor",
          "Kotagiri Ridge & Slopes",
          "Kundah Hydel Basin",
          "Gudalur Western Escarpment"
        ],
        "created_at_utc": "2026-09-17T05:12:37.303392+00:00",
        "area_sq_km": 2073.45,
        "centroid": {
          "longitude": 76.7116,
          "latitude": 11.4084
        },
        "bbox": [
          76.45,
          11.2,
          77.05,
          11.6
        ]
      },
      "geometry": {
        "type": "Polygon",
        "coordinates": [
          [
            [
              76.45,
              11.5
            ],
            [
              76.55,
              11.6
            ],
            [
              76.75,
              11.6
            ],
            [
              77.05,
              11.45
            ],
            [
              76.95,
              11.3
            ],
            [
              76.7,
              11.2
            ],
            [
              76.5,
              11.25
            ],
            [
              76.45,
              11.38
            ],
            [
              76.45,
              11.5
            ]
          ]
        ]
      },
      "bbox": [
        76.45,
        11.2,
        77.05,
        11.6
      ]
    }
  ]
}