{
"type": "FeatureCollection",
"name": "historical_landslide_features",
"crs": { "type": "name", "properties": { "name": "urn:ogc:def:crs:OGC:1.3:CRS84" } },
"features": [
{ "type": "Feature", "properties": { "landslide_id": "DEMO-LS-001", "date": "2020-05-15T00:00:00", "latitude": 27.7172, "longitude": 85.3239, "location": "Kathmandu Valley", "district": "Kathmandu", "state": "Bagmati", "country": "Nepal", "source": "Demo Source", "source_url": "https://example.com/demo1", "severity": "Low", "description": "A synthetic landslide record for demonstration purposes only.", "data_quality_status": "CLEAN", "ndvi": -0.38, "ndvi_status": "EXTRACTED", "rainfall_24h": null, "rainfall_3d": null, "rainfall_7d": null, "rainfall_status": "NOT_SPATIALLY_MAPPABLE", "elevation_m": 1620.0, "elevation_status": "EXTRACTED", "slope_deg": 6.0, "slope_status": "EXTRACTED", "aspect_deg": 150.0, "aspect_status": "EXTRACTED", "feature_extraction_status": "COMPLETE", "data_source_type": "SYNTHETIC_DEMO" }, "geometry": { "type": "Point", "coordinates": [ 85.3239, 27.7172 ] } },
{ "type": "Feature", "properties": { "landslide_id": "DEMO-LS-002", "date": "2019-07-22T00:00:00", "latitude": 28.3949, "longitude": 84.124, "location": "Pokhara", "district": "Kaski", "state": "Gandaki", "country": "Nepal", "source": "Demo Source", "source_url": "https://example.com/demo2", "severity": "Medium", "description": "Another synthetic record. Not real historical data.", "data_quality_status": "CLEAN", "ndvi": -0.42, "ndvi_status": "EXTRACTED", "rainfall_24h": null, "rainfall_3d": null, "rainfall_7d": null, "rainfall_status": "NOT_SPATIALLY_MAPPABLE", "elevation_m": 3580.0, "elevation_status": "EXTRACTED", "slope_deg": 19.0, "slope_status": "EXTRACTED", "aspect_deg": 100.0, "aspect_status": "EXTRACTED", "feature_extraction_status": "COMPLETE", "data_source_type": "SYNTHETIC_DEMO" }, "geometry": { "type": "Point", "coordinates": [ 84.124, 28.3949 ] } },
{ "type": "Feature", "properties": { "landslide_id": "DEMO-LS-003", "date": "2021-08-10T00:00:00", "latitude": 30.3165, "longitude": 78.0322, "location": "Uttarkashi", "district": "Uttarkashi", "state": "Uttarakhand", "country": "India", "source": "Demo Source", "source_url": "https://example.com/demo3", "severity": "High", "description": "Third synthetic record. Do not use for training.", "data_quality_status": "CLEAN", "ndvi": -0.34, "ndvi_status": "EXTRACTED", "rainfall_24h": null, "rainfall_3d": null, "rainfall_7d": null, "rainfall_status": "NOT_SPATIALLY_MAPPABLE", "elevation_m": 660.0, "elevation_status": "EXTRACTED", "slope_deg": 8.0, "slope_status": "EXTRACTED", "aspect_deg": 80.0, "aspect_status": "EXTRACTED", "feature_extraction_status": "COMPLETE", "data_source_type": "SYNTHETIC_DEMO" }, "geometry": { "type": "Point", "coordinates": [ 78.0322, 30.3165 ] } },
{ "type": "Feature", "properties": { "landslide_id": "DEMO-LS-004", "date": "2018-09-01T00:00:00", "latitude": 22.5726, "longitude": 88.3639, "location": "Kolkata", "district": "Kolkata", "state": "West Bengal", "country": "India", "source": "Demo Source", "source_url": "https://example.com/demo4", "severity": null, "description": "A record with missing severity.", "data_quality_status": "CLEAN", "ndvi": 0.25, "ndvi_status": "EXTRACTED", "rainfall_24h": null, "rainfall_3d": null, "rainfall_7d": null, "rainfall_status": "NOT_SPATIALLY_MAPPABLE", "elevation_m": 2250.0, "elevation_status": "EXTRACTED", "slope_deg": 22.5, "slope_status": "EXTRACTED", "aspect_deg": 315.0, "aspect_status": "EXTRACTED", "feature_extraction_status": "COMPLETE", "data_source_type": "SYNTHETIC_DEMO" }, "geometry": { "type": "Point", "coordinates": [ 88.3639, 22.5726 ] } }
]
}
